[{"OBJECT_NAME":"STARLINK-3320","OBJECT_ID":"2022-001AN","EPOCH":"2026-03-09T14:48:42.945408","MEAN_MOTION":15.08832739,"ECCENTRICITY":0.0001079,"INCLINATION":53.2163,"RA_OF_ASC_NODE":179.4472,"ARG_OF_PERICENTER":89.5101,"MEAN_ANOMALY":270.6015,"EPHEMERIS_TYPE":0,"CLASSIFICATION_TYPE":"U","NORAD_CAT_ID":50839,"ELEMENT_SET_NO":999,"REV_AT_EPOCH":23024,"BSTAR":-0.00012383,"MEAN_MOTION_DOT":-2.258e-5,"MEAN_MOTION_DDOT":0},{"OBJECT_NAME":"COSMOS 2251 DEB","OBJECT_ID":"1993-036KZ","EPOCH":"2026-03-09T13:28:08.575968","MEAN_MOTION":15.07827872,"ECCENTRICITY":0.00279097,"INCLINATION":73.9949,"RA_OF_ASC_NODE":118.7357,"ARG_OF_PERICENTER":226.7607,"MEAN_ANOMALY":259.798,"EPHEMERIS_TYPE":0,"CLASSIFICATION_TYPE":"U","NORAD_CAT_ID":34128,"ELEMENT_SET_NO":999,"REV_AT_EPOCH":90472,"BSTAR":0.0021198383,"MEAN_MOTION_DOT":0.0003287,"MEAN_MOTION_DDOT":0}]
